OBJECT_NAME,OBJECT_ID,EPOCH,MEAN_MOTION,ECCENTRICITY,INCLINATION,RA_OF_ASC_NODE,ARG_OF_PERICENTER,MEAN_ANOMALY,EPHEMERIS_TYPE,CLASSIFICATION_TYPE,NORAD_CAT_ID,ELEMENT_SET_NO,REV_AT_EPOCH,BSTAR,MEAN_MOTION_DOT,MEAN_MOTION_DDOT
IRIDIUM 156,2018-061H,2026-06-17T17:53:18.577824,14.34216794,.0002108,86.3963,56.4961,83.1935,276.9500,0,U,43576,999,41345,.67118E-4,.208E-5,0
IRIDIUM 164,2018-061J,2026-06-17T17:25:54.422112,14.34217193,.0002158,86.3960,56.5443,88.8784,271.2659,0,U,43577,999,41349,.45582E-4,.147E-5,0
IRIDIUM 159,2018-061K,2026-06-17T18:20:42.532224,14.34217553,.0002271,86.3960,56.4653,83.8189,276.3266,0,U,43578,999,41346,.73417E-5,.4E-6,0
IRIDIUM 180,2019-002A,2026-06-17T13:18:34.879968,14.34217198,.0002245,86.3970,353.4438,89.0950,271.0503,0,U,43922,999,38904,.37455E-4,.125E-5,0
IRIDIUM 176,2019-002B,2026-06-17T11:58:13.690848,14.72267339,.0002292,86.6090,353.4107,92.8388,267.3092,0,U,43923,999,39929,.91298911E-4,.601E-5,0
IRIDIUM 168,2019-002C,2026-06-17T13:09:26.715168,14.34218749,.000218,86.3974,353.5239,89.3052,270.8394,0,U,43924,999,38902,.20551E-4,.77E-6,0
IRIDIUM 173,2019-002D,2026-06-17T14:31:38.905824,14.34216803,.0002175,86.3969,353.3889,87.4032,272.7413,0,U,43925,999,38901,.39637E-4,.131E-5,0
IRIDIUM 169,2019-002E,2026-06-17T16:04:11.565120,14.38609195,.0001832,86.4224,24.9917,73.0334,287.1065,0,U,43926,999,39029,.64743E-4,.218E-5,0
IRIDIUM 172,2019-002F,2026-06-17T14:22:30.747072,14.34218663,.0002252,86.3970,353.3995,88.7207,271.4246,0,U,43927,999,38902,.4462E-4,.145E-5,0
IRIDIUM 175,2019-002G,2026-06-17T18:15:54.542016,14.43612945,.0002572,86.4513,290.2810,177.1945,182.9271,0,U,43928,999,39906,.70901E-4,.26E-5,0
IRIDIUM 171,2019-002H,2026-06-17T20:36:58.893408,14.34217410,.0001935,86.3976,353.5969,91.1372,269.0045,0,U,43929,999,38905,-.20136E-4,-.37E-6,0
IRIDIUM 170,2019-002J,2026-06-17T12:07:07.671360,14.72267873,.00023612,86.6091,353.4105,89.3107,270.8381,0,U,43930,999,39930,.91933433E-4,.605E-5,0
IRIDIUM 167,2019-002K,2026-06-17T12:05:30.857568,14.34217604,.00017686,86.3967,353.4616,92.0454,268.0944,0,U,43931,999,38900,-.2026859E-5,.14E-6,0
IRIDIUM 181,2023-068S,2026-06-17T17:31:47.932032,14.43312711,.0002356,86.4498,56.5635,88.4207,271.7264,0,U,56726,999,16251,.72321E-4,.264E-5,0
IRIDIUM 177,2023-068T,2026-06-17T12:36:33.238080,14.80224847,.00023461,86.1964,328.6307,88.5551,271.5939,0,U,56727,999,16641,.62270763E-4,.5E-5,0
IRIDIUM 174,2023-068U,2026-06-17T11:49:21.856512,14.72264223,.00024594,86.6098,353.5631,84.1387,276.0110,0,U,56728,999,16606,.94769863E-4,.622E-5,0
IRIDIUM 178,2023-068V,2026-06-17T17:12:56.384064,14.80234512,.000263,86.6537,25.1386,85.7769,274.3753,0,U,56729,999,16644,.95725E-4,.754E-5,0
IRIDIUM 179,2023-068W,2026-06-17T15:27:49.208256,14.80231502,.0002467,86.6776,34.1509,88.8639,271.2865,0,U,56730,999,16643,.65372E-4,.523E-5,0
